[{"OBJECT_NAME":"STARLINK-1800","OBJECT_ID":"2020-073AG","EPOCH":"2026-03-10T00:00:02.999808","MEAN_MOTION":15.79776144,"ECCENTRICITY":0.00048232,"INCLINATION":53.0392,"RA_OF_ASC_NODE":207.8023,"ARG_OF_PERICENTER":307.6463,"MEAN_ANOMALY":354.6539,"EPHEMERIS_TYPE":0,"CLASSIFICATION_TYPE":"U","NORAD_CAT_ID":46700,"ELEMENT_SET_NO":999,"REV_AT_EPOCH":598,"BSTAR":0.001050296,"MEAN_MOTION_DOT":0.00201242,"MEAN_MOTION_DDOT":0},{"OBJECT_NAME":"GHOST-1","OBJECT_ID":"2023-054T","EPOCH":"2026-03-09T17:24:48.864384","MEAN_MOTION":15.83170252,"ECCENTRICITY":0.00050061,"INCLINATION":97.3006,"RA_OF_ASC_NODE":345.7036,"ARG_OF_PERICENTER":67.0206,"MEAN_ANOMALY":293.1591,"EPHEMERIS_TYPE":0,"CLASSIFICATION_TYPE":"U","NORAD_CAT_ID":56195,"ELEMENT_SET_NO":999,"REV_AT_EPOCH":16365,"BSTAR":0.0007406482,"MEAN_MOTION_DOT":0.00161066,"MEAN_MOTION_DDOT":0}]
